<?xml version="1.0" encoding="UTF-8"?>
<TrainingCenterDatabase xmlns="http://www.garmin.com/xmlschemas/TrainingCenterDatabase/v2">
  <Activities>
    <Activity Sport="Running">
      <Id>2024-01-02T03:04:05Z</Id>
      <Lap StartTime="2024-01-02T03:04:05Z">
        <TotalTimeSeconds>600</TotalTimeSeconds>
        <DistanceMeters>1200</DistanceMeters>
        <Track>
          <Trackpoint>
            <Time>2024-01-02T03:04:05Z</Time>
            <Position>
              <LatitudeDegrees>35.6895</LatitudeDegrees>
              <LongitudeDegrees>139.6917</LongitudeDegrees>
            </Position>
            <AltitudeMeters>12</AltitudeMeters>
            <DistanceMeters>0</DistanceMeters>
          </Trackpoint>
          <Trackpoint>
            <Time>2024-01-02T03:09:05Z</Time>
            <Position>
              <LatitudeDegrees>35.6897</LatitudeDegrees>
              <LongitudeDegrees>139.6920</LongitudeDegrees>
            </Position>
            <AltitudeMeters>13</AltitudeMeters>
            <DistanceMeters>1200</DistanceMeters>
          </Trackpoint>
        </Track>
      </Lap>
    </Activity>
  </Activities>
  <Courses>
    <Course>
      <Name>Test Course</Name>
      <CoursePoint>
        <Name>Turn Right</Name>
        <Time>2024-01-02T03:07:05Z</Time>
        <Position>
          <LatitudeDegrees>35.6896</LatitudeDegrees>
          <LongitudeDegrees>139.6918</LongitudeDegrees>
        </Position>
        <PointType>Right</PointType>
      </CoursePoint>
    </Course>
  </Courses>
</TrainingCenterDatabase>
